[{"OBJECT_NAME":"ONEWEB-0405","OBJECT_ID":"2021-132S","EPOCH":"2026-05-02T03:36:57.073248","MEAN_MOTION":13.18758361,"ECCENTRICITY":7.65e-05,"INCLINATION":87.9173,"RA_OF_ASC_NODE":344.591,"ARG_OF_PERICENTER":101.8839,"MEAN_ANOMALY":258.2379,"EPHEMERIS_TYPE":0,"CLASSIFICATION_TYPE":"U","NORAD_CAT_ID":50485,"ELEMENT_SET_NO":999,"REV_AT_EPOCH":21592,"BSTAR":-0.012588,"MEAN_MOTION_DOT":-4.952e-05,"MEAN_MOTION_DDOT":0.0},{"OBJECT_NAME":"ONEWEB-0406","OBJECT_ID":"2021-132T","EPOCH":"2026-05-02T03:24:48.651264","MEAN_MOTION":13.18600766,"ECCENTRICITY":0.0001917,"INCLINATION":87.9189,"RA_OF_ASC_NODE":344.6192,"ARG_OF_PERICENTER":102.5306,"MEAN_ANOMALY":257.604,"EPHEMERIS_TYPE":0,"CLASSIFICATION_TYPE":"U","NORAD_CAT_ID":50486,"ELEMENT_SET_NO":999,"REV_AT_EPOCH":21555,"BSTAR":0.0093513,"MEAN_MOTION_DOT":3.696e-05,"MEAN_MOTION_DDOT":0.0},{"OBJECT_NAME":"ONEWEB-0407","OBJECT_ID":"2021-132U","EPOCH":"2026-05-02T03:15:06.704928","MEAN_MOTION":13.18614317,"ECCENTRICITY":0.0002005,"INCLINATION":87.9204,"RA_OF_ASC_NODE":344.6072,"ARG_OF_PERICENTER":78.2126,"MEAN_ANOMALY":281.9231,"EPHEMERIS_TYPE":0,"CLASSIFICATION_TYPE":"U","NORAD_CAT_ID":50487,"ELEMENT_SET_NO":999,"REV_AT_EPOCH":21549,"BSTAR":0.007195399999999999,"MEAN_MOTION_DOT":2.848e-05,"MEAN_MOTION_DDOT":0.0},{"OBJECT_NAME":"ONEWEB-0409","OBJECT_ID":"2021-132V","EPOCH":"2026-05-02T04:05:10.375872","MEAN_MOTION":13.11419845,"ECCENTRICITY":0.0001648,"INCLINATION":87.8934,"RA_OF_ASC_NODE":30.2026,"ARG_OF_PERICENTER":86.6016,"MEAN_ANOMALY":273.5301,"EPHEMERIS_TYPE":0,"CLASSIFICATION_TYPE":"U","NORAD_CAT_ID":50488,"ELEMENT_SET_NO":999,"REV_AT_EPOCH":20955,"BSTAR":-8.649700000000001e-05,"MEAN_MOTION_DOT":-1.8e-07,"MEAN_MOTION_DDOT":0.0},{"OBJECT_NAME":"ONEWEB-0412","OBJECT_ID":"2021-132W","EPOCH":"2026-05-02T01:08:51.413856","MEAN_MOTION":13.18636993,"ECCENTRICITY":0.0002235,"INCLINATION":87.9181,"RA_OF_ASC_NODE":344.6363,"ARG_OF_PERICENTER":84.9144,"MEAN_ANOMALY":275.2243,"EPHEMERIS_TYPE":0,"CLASSIFICATION_TYPE":"U","NORAD_CAT_ID":50489,"ELEMENT_SET_NO":999,"REV_AT_EPOCH":21557,"BSTAR":0.0040507,"MEAN_MOTION_DOT":1.609e-05,"MEAN_MOTION_DDOT":0.0},{"OBJECT_NAME":"ONEWEB-0413","OBJECT_ID":"2021-132X","EPOCH":"2026-05-02T03:05:22.875072","MEAN_MOTION":13.18644702,"ECCENTRICITY":0.0002393,"INCLINATION":87.9161,"RA_OF_ASC_NODE":344.6243,"ARG_OF_PERICENTER":80.9352,"MEAN_ANOMALY":279.2051,"EPHEMERIS_TYPE":0,"CLASSIFICATION_TYPE":"U","NORAD_CAT_ID":50490,"ELEMENT_SET_NO":999,"REV_AT_EPOCH":21552,"BSTAR":0.008755800000000001,"MEAN_MOTION_DOT":3.464e-05,"MEAN_MOTION_DDOT":0.0},{"OBJECT_NAME":"ONEWEB-0414","OBJECT_ID":"2021-132Y","EPOCH":"2026-05-02T00:54:16.682976","MEAN_MOTION":13.18663978,"ECCENTRICITY":0.0002008,"INCLINATION":87.9193,"RA_OF_ASC_NODE":344.6174,"ARG_OF_PERICENTER":87.477,"MEAN_ANOMALY":272.6592,"EPHEMERIS_TYPE":0,"CLASSIFICATION_TYPE":"U","NORAD_CAT_ID":50491,"ELEMENT_SET_NO":999,"REV_AT_EPOCH":21554,"BSTAR":0.0019663,"MEAN_MOTION_DOT":7.88e-06,"MEAN_MOTION_DDOT":0.0},{"OBJECT_NAME":"ONEWEB-0417","OBJECT_ID":"2021-132Z","EPOCH":"2026-05-02T01:06:26.032896","MEAN_MOTION":13.18649186,"ECCENTRICITY":0.0001809,"INCLINATION":87.9186,"RA_OF_ASC_NODE":344.6395,"ARG_OF_PERICENTER":91.043,"MEAN_ANOMALY":269.091,"EPHEMERIS_TYPE":0,"CLASSIFICATION_TYPE":"U","NORAD_CAT_ID":50492,"ELEMENT_SET_NO":999,"REV_AT_EPOCH":21552,"BSTAR":0.0040284,"MEAN_MOTION_DOT":1.6e-05,"MEAN_MOTION_DDOT":0.0},{"OBJECT_NAME":"ONEWEB-0418","OBJECT_ID":"2021-132AA","EPOCH":"2026-05-02T03:10:04.090656","MEAN_MOTION":13.18636605,"ECCENTRICITY":0.0001822,"INCLINATION":87.9194,"RA_OF_ASC_NODE":344.6173,"ARG_OF_PERICENTER":95.3643,"MEAN_ANOMALY":264.7696,"EPHEMERIS_TYPE":0,"CLASSIFICATION_TYPE":"U","NORAD_CAT_ID":50493,"ELEMENT_SET_NO":999,"REV_AT_EPOCH":21559,"BSTAR":0.010271,"MEAN_MOTION_DOT":4.061e-05,"MEAN_MOTION_DDOT":0.0},{"OBJECT_NAME":"ONEWEB-0419","OBJECT_ID":"2021-132AB","EPOCH":"2026-05-02T03:35:45.076992","MEAN_MOTION":13.18663331,"ECCENTRICITY":0.0001525,"INCLINATION":87.9195,"RA_OF_ASC_NODE":344.6136,"ARG_OF_PERICENTER":86.4973,"MEAN_ANOMALY":273.6333,"EPHEMERIS_TYPE":0,"CLASSIFICATION_TYPE":"U","NORAD_CAT_ID":50494,"ELEMENT_SET_NO":999,"REV_AT_EPOCH":21551,"BSTAR":0.00013457,"MEAN_MOTION_DOT":6.6e-07,"MEAN_MOTION_DDOT":0.0},{"OBJECT_NAME":"ONEWEB-0420","OBJECT_ID":"2021-132AC","EPOCH":"2026-05-02T00:56:42.204768","MEAN_MOTION":13.18659021,"ECCENTRICITY":0.0001941,"INCLINATION":87.9188,"RA_OF_ASC_NODE":344.6426,"ARG_OF_PERICENTER":78.7679,"MEAN_ANOMALY":281.3671,"EPHEMERIS_TYPE":0,"CLASSIFICATION_TYPE":"U","NORAD_CAT_ID":50495,"ELEMENT_SET_NO":999,"REV_AT_EPOCH":21549,"BSTAR":0.0023374,"MEAN_MOTION_DOT":9.34e-06,"MEAN_MOTION_DDOT":0.0},{"OBJECT_NAME":"ONEWEB-0421","OBJECT_ID":"2021-132AD","EPOCH":"2026-05-02T00:46:59.664000","MEAN_MOTION":13.18677537,"ECCENTRICITY":0.0002202,"INCLINATION":87.9192,"RA_OF_ASC_NODE":344.6396,"ARG_OF_PERICENTER":90.0218,"MEAN_ANOMALY":270.1167,"EPHEMERIS_TYPE":0,"CLASSIFICATION_TYPE":"U","NORAD_CAT_ID":50496,"ELEMENT_SET_NO":999,"REV_AT_EPOCH":21553,"BSTAR":0.0014081,"MEAN_MOTION_DOT":5.68e-06,"MEAN_MOTION_DDOT":0.0},{"OBJECT_NAME":"ONEWEB-0424","OBJECT_ID":"2021-132AE","EPOCH":"2026-05-02T03:29:40.289280","MEAN_MOTION":13.1859486,"ECCENTRICITY":0.0001706,"INCLINATION":87.9207,"RA_OF_ASC_NODE":344.6141,"ARG_OF_PERICENTER":85.6158,"MEAN_ANOMALY":274.5169,"EPHEMERIS_TYPE":0,"CLASSIFICATION_TYPE":"U","NORAD_CAT_ID":50497,"ELEMENT_SET_NO":999,"REV_AT_EPOCH":21557,"BSTAR":0.010244000000000001,"MEAN_MOTION_DOT":4.048e-05,"MEAN_MOTION_DDOT":0.0},{"OBJECT_NAME":"ONEWEB-0426","OBJECT_ID":"2021-132AF","EPOCH":"2026-05-01T21:03:30.006432","MEAN_MOTION":13.18691051,"ECCENTRICITY":0.0002144,"INCLINATION":87.9196,"RA_OF_ASC_NODE":344.6586,"ARG_OF_PERICENTER":103.1883,"MEAN_ANOMALY":256.9488,"EPHEMERIS_TYPE":0,"CLASSIFICATION_TYPE":"U","NORAD_CAT_ID":50498,"ELEMENT_SET_NO":999,"REV_AT_EPOCH":21548,"BSTAR":-1.2157e-05,"MEAN_MOTION_DOT":8e-08,"MEAN_MOTION_DDOT":0.0},{"OBJECT_NAME":"ONEWEB-0427","OBJECT_ID":"2021-132AG","EPOCH":"2026-05-02T03:27:13.047264","MEAN_MOTION":13.18600239,"ECCENTRICITY":0.000262,"INCLINATION":87.9239,"RA_OF_ASC_NODE":344.5954,"ARG_OF_PERICENTER":91.9842,"MEAN_ANOMALY":268.159,"EPHEMERIS_TYPE":0,"CLASSIFICATION_TYPE":"U","NORAD_CAT_ID":50499,"ELEMENT_SET_NO":999,"REV_AT_EPOCH":21554,"BSTAR":0.020003000000000003,"MEAN_MOTION_DOT":7.896e-05,"MEAN_MOTION_DDOT":0.0},{"OBJECT_NAME":"ONEWEB-0429","OBJECT_ID":"2021-132AH","EPOCH":"2026-05-02T03:07:50.117952","MEAN_MOTION":13.18621492,"ECCENTRICITY":0.0001955,"INCLINATION":87.9191,"RA_OF_ASC_NODE":344.6259,"ARG_OF_PERICENTER":80.6428,"MEAN_ANOMALY":279.4925,"EPHEMERIS_TYPE":0,"CLASSIFICATION_TYPE":"U","NORAD_CAT_ID":50500,"ELEMENT_SET_NO":999,"REV_AT_EPOCH":21551,"BSTAR":0.0051284,"MEAN_MOTION_DOT":2.033e-05,"MEAN_MOTION_DDOT":0.0}]