ONEWEB-0405             
1 50485U 21132S   26122.15066057 -.00004952  00000+0 -12588-1 0  9990
2 50485  87.9173 344.5910 0000765 101.8839 258.2379 13.18758361215921
ONEWEB-0406             
1 50486U 21132T   26122.14222976  .00003696  00000+0  93513-2 0  9994
2 50486  87.9189 344.6192 0001917 102.5306 257.6040 13.18600766215551
ONEWEB-0407             
1 50487U 21132U   26122.13549427  .00002848  00000+0  71954-2 0  9990
2 50487  87.9204 344.6072 0002005  78.2126 281.9231 13.18614317215497
ONEWEB-0409             
1 50488U 21132V   26122.17025898 -.00000018  00000+0 -86497-4 0  9995
2 50488  87.8934  30.2026 0001648  86.6016 273.5301 13.11419845209554
ONEWEB-0412             
1 50489U 21132W   26122.04781729  .00001609  00000+0  40507-2 0  9999
2 50489  87.9181 344.6363 0002235  84.9144 275.2243 13.18636993215577
ONEWEB-0413             
1 50490U 21132X   26122.12873698  .00003464  00000+0  87558-2 0  9995
2 50490  87.9161 344.6243 0002393  80.9352 279.2051 13.18644702215529
ONEWEB-0414             
1 50491U 21132Y   26122.03769309  .00000788  00000+0  19663-2 0  9997
2 50491  87.9193 344.6174 0002008  87.4770 272.6592 13.18663978215542
ONEWEB-0417             
1 50492U 21132Z   26122.04613464  .00001600  00000+0  40284-2 0  9996
2 50492  87.9186 344.6395 0001809  91.0430 269.0910 13.18649186215529
ONEWEB-0418             
1 50493U 21132AA  26122.13199179  .00004061  00000+0  10271-1 0  9995
2 50493  87.9194 344.6173 0001822  95.3643 264.7696 13.18636605215593
ONEWEB-0419             
1 50494U 21132AB  26122.14982728  .00000066  00000+0  13457-3 0  9999
2 50494  87.9195 344.6136 0001525  86.4973 273.6333 13.18663331215516
ONEWEB-0420             
1 50495U 21132AC  26122.03937737  .00000934  00000+0  23374-2 0  9990
2 50495  87.9188 344.6426 0001941  78.7679 281.3671 13.18659021215499
ONEWEB-0421             
1 50496U 21132AD  26122.03263500  .00000568  00000+0  14081-2 0  9999
2 50496  87.9192 344.6396 0002202  90.0218 270.1167 13.18677537215531
ONEWEB-0424             
1 50497U 21132AE  26122.14560520  .00004048  00000+0  10244-1 0  9997
2 50497  87.9207 344.6141 0001706  85.6158 274.5169 13.18594860215579
ONEWEB-0426             
1 50498U 21132AF  26121.87743063  .00000008  00000+0 -12157-4 0  9993
2 50498  87.9196 344.6586 0002144 103.1883 256.9488 13.18691051215486
ONEWEB-0427             
1 50499U 21132AG  26122.14390101  .00007896  00000+0  20003-1 0  9993
2 50499  87.9239 344.5954 0002620  91.9842 268.1590 13.18600239215545
ONEWEB-0429             
1 50500U 21132AH  26122.13044118  .00002033  00000+0  51284-2 0  9993
2 50500  87.9191 344.6259 0001955  80.6428 279.4925 13.18621492215517
